0 SL-16 DEB
1 22379U 92093BU  13282.52663239  .00000784  00000-0  51462-3 0  8155
2 22379 070.7091 340.8648 0094320 006.0751 354.1482 14.03052883 59060
0 SL-16 DEB
1 22379U 92093BU  13283.80990791  .00000808  00000-0  52968-3 0  8163
2 22379 070.7090 338.1832 0094419 004.2047 355.9838 14.03055548 59246
0 SL-16 DEB
1 22379U 92093BU  13286.16257508  .00000623  00000-0  41487-3 0  8188
2 22379 070.7086 333.2668 0094592 000.7958 359.3289 14.03061170 59570
0 SL-16 DEB
1 22379U 92093BU  13287.51713661  .00000599  00000-0  40014-3 0  8193
2 22379 070.7084 330.4362 0094715 358.8326 001.2552 14.03063840 59764
0 SL-16 DEB
1 22379U 92093BU  13288.94298695  .00000731  00000-0  48154-3 0  8209
2 22379 070.7082 327.4564 0094831 356.7741 003.2749 14.03067420 59969
0 SL-16 DEB
1 22379U 92093BU  13290.15495644  .00000790  00000-0  51819-3 0  8216
2 22379 070.7080 324.9234 0094914 355.0384 004.9779 14.03068565 60133
0 SL-16 DEB
1 22379U 92093BU  13291.50950825  .00000981  00000-0  63647-3 0  8228
2 22379 070.7081 322.0923 0095029 353.0945 006.8852 14.03069621 60325
0 SL-16 DEB
1 22379U 92093BU  13293.14922722  .00001248  00000-0  80084-3 0  8237
2 22379 070.7081 318.6652 0095170 350.7362 009.1992 14.03071807 60554
0 SL-16 DEB
1 22379U 92093BU  13294.50377642  .00001279  00000-0  81979-3 0  8242
2 22379 070.7081 315.8343 0095284 348.8017 011.0975 14.03075649 60743
0 SL-16 DEB
1 22379U 92093BU  13296.14349046  .00001262  00000-0  80956-3 0  8258
2 22379 070.7081 312.4073 0095399 346.4646 013.3911 14.03081426 60975
